start=new Date('2021-10-31T00:00:00.000Z').valueOf();
sats=[{"CENTER_NAME":"EARTH","RCS_SIZE":"LARGE","NORAD_CAT_ID":"45376","MEAN_ELEMENT_THEORY":"SGP4","FILE":"3192905","ARG_OF_PERICENTER":"86.1708","RA_OF_ASC_NODE":"111.1023","TIME_SYSTEM":"UTC","TLE_LINE1":"1 45376U 20019S   21303.19931687  .00002078  00000-0  15841-3 0  9999","ECCENTRICITY":"0.00018190","OBJECT_TYPE":"PAYLOAD","DECAY_DATE":null,"OBJECT_ID":"2020-019S","MEAN_MOTION_DDOT":"0.0000000000000","SEMIMAJOR_AXIS":"6925.366","LAUNCH_DATE":"2020-03-18","EPHEMERIS_TYPE":"0","MEAN_MOTION":"15.06394276","TLE_LINE2":"2 45376  53.0543 111.1023 0001819  86.1708 273.9489 15.06394276 89850","REV_AT_EPOCH":"8985","SITE":"AFETR","REF_FRAME":"TEME","MEAN_ANOMALY":"273.9489","APOAPSIS":"548.491","COUNTRY_CODE":"US","GP_ID":"188514405","ELEMENT_SET_NO":"999","PERIOD":"95.593","PERIAPSIS":"545.971","MEAN_MOTION_DOT":"0.00002078","EPOCH":"2021-10-30T04:47:00.977568","INCLINATION":"53.0543","OBJECT_NAME":"STARLINK-1304","BSTAR":"0.00015841000000","CLASSIFICATION_TYPE":"U"},{"BSTAR":"-0.00002557300000","OBJECT_NAME":"STARLINK-1305","CLASSIFICATION_TYPE":"U","INCLINATION":"53.0534","EPOCH":"2021-10-29T23:01:58.802304","PERIAPSIS":"546.113","MEAN_MOTION_DOT":"-0.00000662","PERIOD":"95.592","ELEMENT_SET_NO":"999","GP_ID":"188513155","COUNTRY_CODE":"US","APOAPSIS":"548.332","TLE_LINE2":"2 45377  53.0534 112.1774 0001602  83.4893 276.6279 15.06397171 89821","REV_AT_EPOCH":"8982","MEAN_MOTION":"15.06397171","MEAN_ANOMALY":"276.6279","REF_FRAME":"TEME","SITE":"AFETR","MEAN_MOTION_DDOT":"0.0000000000000","OBJECT_ID":"2020-019T","EPHEMERIS_TYPE":"0","SEMIMAJOR_AXIS":"6925.357","LAUNCH_DATE":"2020-03-18","OBJECT_TYPE":"PAYLOAD","ECCENTRICITY":"0.00016020","DECAY_DATE":null,"TLE_LINE1":"1 45377U 20019T   21302.95970836 -.00000662  00000-0 -25573-4 0  9995","RA_OF_ASC_NODE":"112.1774","TIME_SYSTEM":"UTC","ARG_OF_PERICENTER":"83.4893","FILE":"3192905","NORAD_CAT_ID":"45377","MEAN_ELEMENT_THEORY":"SGP4","RCS_SIZE":"LARGE","CENTER_NAME":"EARTH"},{"COUNTRY_CODE":"US","GP_ID":"188525474","APOAPSIS":"548.550","MEAN_ANOMALY":"271.6578","SITE":"AFETR","REF_FRAME":"TEME","TLE_LINE2":"2 45378  53.0545 108.6553 0001944  88.4633 271.6578 15.06403177 89949","REV_AT_EPOCH":"8994","MEAN_MOTION":"15.06403177","CLASSIFICATION_TYPE":"U","BSTAR":"0.00014889000000","OBJECT_NAME":"STARLINK-1310","EPOCH":"2021-10-30T17:52:32.188800","INCLINATION":"53.0545","PERIOD":"95.592","ELEMENT_SET_NO":"999","PERIAPSIS":"545.858","MEAN_MOTION_DOT":"0.00001937","RA_OF_ASC_NODE":"108.6553","TIME_SYSTEM":"UTC","TLE_LINE1":"1 45378U 20019U   21303.74481700  .00001937  00000-0  14889-3 0  9992","FILE":"3193257","ARG_OF_PERICENTER":"88.4633","NORAD_CAT_ID":"45378","MEAN_ELEMENT_THEORY":"SGP4","CENTER_NAME":"EARTH","RCS_SIZE":"LARGE","EPHEMERIS_TYPE":"0","SEMIMAJOR_AXIS":"6925.339","LAUNCH_DATE":"2020-03-18","MEAN_MOTION_DDOT":"0.0000000000000","OBJECT_ID":"2020-019U","DECAY_DATE":null,"ECCENTRICITY":"0.00019440","OBJECT_TYPE":"PAYLOAD"},{"DECAY_DATE":null,"ECCENTRICITY":"0.00018960","OBJECT_TYPE":"PAYLOAD","EPHEMERIS_TYPE":"0","SEMIMAJOR_AXIS":"6925.347","LAUNCH_DATE":"2020-03-18","MEAN_MOTION_DDOT":"0.0000000000000","OBJECT_ID":"2020-019V","NORAD_CAT_ID":"45379","MEAN_ELEMENT_THEORY":"SGP4","CENTER_NAME":"EARTH","RCS_SIZE":"LARGE","RA_OF_ASC_NODE":"108.6389","TIME_SYSTEM":"UTC","TLE_LINE1":"1 45379U 20019V   21303.74849879  .00001514  00000-0  12053-3 0  9990","FILE":"3193071","ARG_OF_PERICENTER":"80.8729","INCLINATION":"53.0534","EPOCH":"2021-10-30T17:57:50.295456","ELEMENT_SET_NO":"999","PERIOD":"95.592","PERIAPSIS":"545.899","MEAN_MOTION_DOT":"0.00001514","CLASSIFICATION_TYPE":"U","BSTAR":"0.00012053000000","OBJECT_NAME":"STARLINK-1319","MEAN_ANOMALY":"279.2475","SITE":"AFETR","REF_FRAME":"TEME","TLE_LINE2":"2 45379  53.0534 108.6389 0001896  80.8729 279.2475 15.06400578 89945","REV_AT_EPOCH":"8994","MEAN_MOTION":"15.06400578","COUNTRY_CODE":"US","GP_ID":"188520956","APOAPSIS":"548.525"},{"BSTAR":"0.00005869400000","OBJECT_NAME":"STARLINK-1207","CLASSIFICATION_TYPE":"U","INCLINATION":"53.0554","EPOCH":"2021-10-30T13:08:33.478080","ELEMENT_SET_NO":"999","PERIOD":"95.592","MEAN_MOTION_DOT":"0.00000593","PERIAPSIS":"546.187","COUNTRY_CODE":"US","GP_ID":"188513906","APOAPSIS":"548.213","REV_AT_EPOCH":"9018","TLE_LINE2":"2 45380  53.0554  89.5428 0001463  81.9417 278.1738 15.06404368 90185","MEAN_MOTION":"15.06404368","MEAN_ANOMALY":"278.1738","SITE":"AFETR","REF_FRAME":"TEME","MEAN_MOTION_DDOT":"0.0000000000000","OBJECT_ID":"2020-019W","EPHEMERIS_TYPE":"0","SEMIMAJOR_AXIS":"6925.335","LAUNCH_DATE":"2020-03-18","ECCENTRICITY":"0.00014630","OBJECT_TYPE":"PAYLOAD","DECAY_DATE":null,"TIME_SYSTEM":"UTC","RA_OF_ASC_NODE":"89.5428","TLE_LINE1":"1 45380U 20019W   21303.54760970  .00000593  00000-0  58694-4 0  9992","ARG_OF_PERICENTER":"81.9417","FILE":"3192905","MEAN_ELEMENT_THEORY":"SGP4","NORAD_CAT_ID":"45380","CENTER_NAME":"EARTH","RCS_SIZE":"LARGE"},{"APOAPSIS":"548.291","GP_ID":"188490089","COUNTRY_CODE":"US","MEAN_MOTION":"15.06402261","REV_AT_EPOCH":"9017","TLE_LINE2":"2 45381  53.0535  89.7844 0001566  80.2179 279.8987 15.06402261 90173","REF_FRAME":"TEME","SITE":"AFETR","MEAN_ANOMALY":"279.8987","OBJECT_NAME":"STARLINK-1258","BSTAR":"0.00009699400000","CLASSIFICATION_TYPE":"U","PERIAPSIS":"546.122","MEAN_MOTION_DOT":"0.00001164","PERIOD":"95.592","ELEMENT_SET_NO":"999","EPOCH":"2021-10-30T11:48:56.679552","INCLINATION":"53.0535","FILE":"3192729","ARG_OF_PERICENTER":"80.2179","TLE_LINE1":"1 45381U 20019X   21303.49232268  .00001164  00000-0  96994-4 0  9991","TIME_SYSTEM":"UTC","RA_OF_ASC_NODE":"89.7844","RCS_SIZE":"LARGE","CENTER_NAME":"EARTH","MEAN_ELEMENT_THEORY":"SGP4","NORAD_CAT_ID":"45381","OBJECT_ID":"2020-019X","MEAN_MOTION_DDOT":"0.0000000000000","SEMIMAJOR_AXIS":"6925.342","LAUNCH_DATE":"2020-03-18","EPHEMERIS_TYPE":"0","OBJECT_TYPE":"PAYLOAD","ECCENTRICITY":"0.00015660","DECAY_DATE":null},{"DECAY_DATE":null,"ECCENTRICITY":"0.00016420","OBJECT_TYPE":"PAYLOAD","SEMIMAJOR_AXIS":"6925.331","LAUNCH_DATE":"2020-03-18","EPHEMERIS_TYPE":"0","OBJECT_ID":"2020-019Y","MEAN_MOTION_DDOT":"0.0000000000000","CENTER_NAME":"EARTH","RCS_SIZE":"LARGE","NORAD_CAT_ID":"45382","MEAN_ELEMENT_THEORY":"SGP4","ARG_OF_PERICENTER":"74.2414","FILE":"3193247","TIME_SYSTEM":"UTC","RA_OF_ASC_NODE":"88.3999","TLE_LINE1":"1 45382U 20019Y   21303.80194518  .00005941  00000-0  41730-3 0  9996","ELEMENT_SET_NO":"999","PERIOD":"95.592","PERIAPSIS":"546.058","MEAN_MOTION_DOT":"0.00005941","EPOCH":"2021-10-30T19:14:48.063552","INCLINATION":"53.0538","CLASSIFICATION_TYPE":"U","OBJECT_NAME":"STARLINK-1264","BSTAR":"0.00041730000000","SITE":"AFETR","REF_FRAME":"TEME","MEAN_ANOMALY":"285.8756","MEAN_MOTION":"15.06405848","REV_AT_EPOCH":"9004","TLE_LINE2":"2 45382  53.0538  88.3999 0001642  74.2414 285.8756 15.06405848 90044","APOAPSIS":"548.333","COUNTRY_CODE":"US","GP_ID":"188525810"},{"APOAPSIS":"548.371","COUNTRY_CODE":"US","GP_ID":"188525313","SITE":"AFETR","REF_FRAME":"TEME","MEAN_ANOMALY":"271.2969","MEAN_MOTION":"15.06399103","TLE_LINE2":"2 45383  53.0540  88.9224 0001668  88.8211 271.2969 15.06399103 90208","REV_AT_EPOCH":"9020","CLASSIFICATION_TYPE":"U","OBJECT_NAME":"STARLINK-1266","BSTAR":"0.00009272400000","ELEMENT_SET_NO":"999","PERIOD":"95.592","PERIAPSIS":"546.061","MEAN_MOTION_DOT":"0.00001100","INCLINATION":"53.0540","EPOCH":"2021-10-30T16:24:57.027168","FILE":"3193247","ARG_OF_PERICENTER":"88.8211","RA_OF_ASC_NODE":"88.9224","TIME_SYSTEM":"UTC","TLE_LINE1":"1 45383U 20019Z   21303.68399337  .00001100  00000-0  92724-4 0  9992","CENTER_NAME":"EARTH","RCS_SIZE":"LARGE","MEAN_ELEMENT_THEORY":"SGP4","NORAD_CAT_ID":"45383","SEMIMAJOR_AXIS":"6925.351","LAUNCH_DATE":"2020-03-18","EPHEMERIS_TYPE":"0","OBJECT_ID":"2020-019Z","MEAN_MOTION_DDOT":"0.0000000000000","DECAY_DATE":null,"ECCENTRICITY":"0.00016680","OBJECT_TYPE":"PAYLOAD"},{"RA_OF_ASC_NODE":"88.9593","TIME_SYSTEM":"UTC","TLE_LINE1":"1 45384U 20019AA  21303.67294496  .00000004  00000-0  19169-4 0  9996","FILE":"3193247","ARG_OF_PERICENTER":"93.1042","MEAN_ELEMENT_THEORY":"SGP4","NORAD_CAT_ID":"45384","CENTER_NAME":"EARTH","RCS_SIZE":"LARGE","MEAN_MOTION_DDOT":"0.0000000000000","OBJECT_ID":"2020-019AA","EPHEMERIS_TYPE":"0","LAUNCH_DATE":"2020-03-18","SEMIMAJOR_AXIS":"6925.327","ECCENTRICITY":"0.00016750","OBJECT_TYPE":"PAYLOAD","DECAY_DATE":null,"COUNTRY_CODE":"US","GP_ID":"188525311","APOAPSIS":"548.352","REV_AT_EPOCH":"9021","TLE_LINE2":"2 45384  53.0555  88.9593 0001675  93.1042 267.0138 15.06406909 90218","MEAN_MOTION":"15.06406909","MEAN_ANOMALY":"267.0138","SITE":"AFETR","REF_FRAME":"TEME","BSTAR":"0.00001916900000","OBJECT_NAME":"STARLINK-1267","CLASSIFICATION_TYPE":"U","INCLINATION":"53.0555","EPOCH":"2021-10-30T16:09:02.444544","ELEMENT_SET_NO":"999","PERIOD":"95.592","PERIAPSIS":"546.032","MEAN_MOTION_DOT":"0.00000004"},{"CLASSIFICATION_TYPE":"U","BSTAR":"0.00006419600000","OBJECT_NAME":"STARLINK-1272","INCLINATION":"53.0537","EPOCH":"2021-10-30T16:14:19.227552","PERIAPSIS":"546.223","MEAN_MOTION_DOT":"0.00000675","ELEMENT_SET_NO":"999","PERIOD":"95.591","GP_ID":"188525346","COUNTRY_CODE":"US","APOAPSIS":"548.098","MEAN_ANOMALY":"276.7626","REF_FRAME":"TEME","SITE":"AFETR","REV_AT_EPOCH":"9021","TLE_LINE2":"2 45386  53.0537  88.9620 0001354  83.3517 276.7626 15.06417371 90217","MEAN_MOTION":"15.06417371","EPHEMERIS_TYPE":"0","SEMIMAJOR_AXIS":"6925.295","LAUNCH_DATE":"2020-03-18","MEAN_MOTION_DDOT":"0.0000000000000","OBJECT_ID":"2020-019AC","DECAY_DATE":null,"OBJECT_TYPE":"PAYLOAD","ECCENTRICITY":"0.00013540","TLE_LINE1":"1 45386U 20019AC  21303.67661143  .00000675  00000-0  64196-4 0  9999","TIME_SYSTEM":"UTC","RA_OF_ASC_NODE":"88.9620","ARG_OF_PERICENTER":"83.3517","FILE":"3193249","MEAN_ELEMENT_THEORY":"SGP4","NORAD_CAT_ID":"45386","RCS_SIZE":"LARGE","CENTER_NAME":"EARTH"}];
